<?xml version="1.0" encoding="ISO-8859-1"?><cdm xmlns:ndm="urn:ccsds:recommendation:navigation:schema:ndmxml" xmlns:xsi="http://www.w3.org/2001/XMLSchema-instance" id="CCSDS_CDM_VERS" version="1.0" xsi:noNamespaceSchemaLocation="http://sanaregistry.org/r/ndmxml/ndmxml-1.0-master.xsd"><header><COMMENT>Secondary = Almanac; Radius = DISCOS</COMMENT><COMMENT>EVENT_ID:CA-24001A-90094A-202312021836</COMMENT><CREATION_DATE>2023-11-29T03:38:13.394</CREATION_DATE><ORIGINATOR>CAESAR</ORIGINATOR><MESSAGE_FOR>SAT_1</MESSAGE_FOR><MESSAGE_ID>ALM_GEO_16140064</MESSAGE_ID></header><body><relativeMetadataData><TCA>2023-12-02T18:37:14.729</TCA><MISS_DISTANCE units="m">4958.406650047359</MISS_DISTANCE><RELATIVE_SPEED units="m/s">725.2617030025928</RELATIVE_SPEED><relativeStateVector><RELATIVE_POSITION_R units="m">606.3668974482305</RELATIVE_POSITION_R><RELATIVE_POSITION_T units="m">4886.486416724001</RELATIVE_POSITION_T><RELATIVE_POSITION_N units="m">583.4091121029154</RELATIVE_POSITION_N><RELATIVE_VELOCITY_R units="m/s">-0.5147594649196308</RELATIVE_VELOCITY_R><RELATIVE_VELOCITY_T units="m/s">-85.91488348092247</RELATIVE_VELOCITY_T><RELATIVE_VELOCITY_N units="m/s">720.1547789616992</RELATIVE_VELOCITY_N></relativeStateVector><START_SCREEN_PERIOD>2023-11-29T01:39:00.427</START_SCREEN_PERIOD><STOP_SCREEN_PERIOD>2023-12-13T01:39:00.427</STOP_SCREEN_PERIOD><SCREEN_VOLUME_FRAME>RTN</SCREEN_VOLUME_FRAME><SCREEN_VOLUME_SHAPE>ELLIPSOID</SCREEN_VOLUME_SHAPE><SCREEN_VOLUME_X units="m">50000.0</SCREEN_VOLUME_X><SCREEN_VOLUME_Y units="m">50000.0</SCREEN_VOLUME_Y><SCREEN_VOLUME_Z units="m">50000.0</SCREEN_VOLUME_Z><SCREEN_ENTRY_TIME>2023-12-02T18:36:06.128</SCREEN_ENTRY_TIME><SCREEN_EXIT_TIME>2023-12-02T18:38:23.330</SCREEN_EXIT_TIME></relativeMetadataData><segment><metadata><OBJECT>OBJECT1</OBJECT><OBJECT_DESIGNATOR>00001</OBJECT_DESIGNATOR><CATALOG_NAME>SATCAT</CATALOG_NAME><OBJECT_NAME>SAT_1</OBJECT_NAME><INTERNATIONAL_DESIGNATOR>2024-001A</INTERNATIONAL_DESIGNATOR><OBJECT_TYPE>UNKNOWN</OBJECT_TYPE><EPHEMERIS_NAME>2024-001A_SAT_1_OPER_20231128T150500_S20231128T150000_E20231227T120000.jspoc</EPHEMERIS_NAME><COVARIANCE_METHOD>CALCULATED</COVARIANCE_METHOD><MANEUVERABLE>YES</MANEUVERABLE><REF_FRAME>ITRF</REF_FRAME></metadata><data><odParameters/><additionalParameters><COMMENT>JAC_LAST_ACC_OB = N/A</COMMENT><AREA_PC units="m**2">1231.6299839133426</AREA_PC></additionalParameters><stateVector><X units="km">41841.221365286234</X><Y units="km">-5327.6055773756525</Y><Z units="km">-18.515201385457118</Z><X_DOT units="km/s">0.0017040129032629351</X_DOT><Y_DOT units="km/s">-0.002318243648382577</Y_DOT><Z_DOT units="km/s">0.003993003779971226</Z_DOT></stateVector><covarianceMatrix><CR_R units="m**2">1124.0197267558274</CR_R><CT_R units="m**2">-5.500239153022335E-12</CT_R><CT_T units="m**2">154128.12338390364</CT_T><CN_R units="m**2">7.105427357601002E-15</CN_R><CN_T units="m**2">-2.1316282072803006E-14</CN_T><CN_N units="m**2">28201.915143362276</CN_N><CRDOT_R units="m**2/s">6.154676920021307E-16</CRDOT_R><CRDOT_T units="m**2/s">-11.231591799192538</CRDOT_T><CRDOT_N units="m**2/s">-3.469446951953614E-18</CRDOT_N><CRDOT_RDOT units="m**2/s**2">8.184661668103034E-4</CRDOT_RDOT><CTDOT_R units="m**2/s">0.08190932626692735</CTDOT_R><CTDOT_T units="m**2/s">1.8255789430517125E-16</CTDOT_T><CTDOT_N units="m**2/s">-2.0328790734103208E-20</CTDOT_N><CTDOT_RDOT units="m**2/s**2">1.711023702911113E-20</CTDOT_RDOT><CTDOT_TDOT units="m**2/s**2">5.968878988330614E-6</CTDOT_TDOT><CNDOT_R units="m**2/s">-5.470447797406571E-20</CNDOT_R><CNDOT_T units="m**2/s">8.923789402888938E-19</CNDOT_T><CNDOT_N units="m**2/s">-2.030527622374368E-21</CNDOT_N><CNDOT_RDOT units="m**2/s**2">-4.648750685009924E-23</CNDOT_RDOT><CNDOT_TDOT units="m**2/s**2">-2.8577450234256544E-23</CNDOT_TDOT><CNDOT_NDOT units="m**2/s**2">1.6782753141459592E-26</CNDOT_NDOT><CDRG_R units="m**3/kg">0.0</CDRG_R><CDRG_T units="m**3/kg">0.0</CDRG_T><CDRG_N units="m**3/kg">0.0</CDRG_N><CDRG_RDOT units="m**3/(kg*s)">0.0</CDRG_RDOT><CDRG_TDOT units="m**3/(kg*s)">0.0</CDRG_TDOT><CDRG_NDOT units="m**3/(kg*s)">0.0</CDRG_NDOT><CDRG_DRG units="m**4/kg**2">0.0</CDRG_DRG><CSRP_R units="m**3/kg">0.0</CSRP_R><CSRP_T units="m**3/kg">0.0</CSRP_T><CSRP_N units="m**3/kg">0.0</CSRP_N><CSRP_RDOT units="m**3/(kg*s)">0.0</CSRP_RDOT><CSRP_TDOT units="m**3/(kg*s)">0.0</CSRP_TDOT><CSRP_NDOT units="m**3/(kg*s)">0.0</CSRP_NDOT><CSRP_DRG units="m**4/kg**2">0.0</CSRP_DRG><CSRP_SRP units="m**4/kg**2">0.0</CSRP_SRP></covarianceMatrix></data></segment><segment><metadata><OBJECT>OBJECT2</OBJECT><OBJECT_DESIGNATOR>20923</OBJECT_DESIGNATOR><CATALOG_NAME>SATCAT</CATALOG_NAME><OBJECT_NAME>GORIZONT 21</OBJECT_NAME><INTERNATIONAL_DESIGNATOR>1990-094A</INTERNATIONAL_DESIGNATOR><OBJECT_TYPE>UNKNOWN</OBJECT_TYPE><EPHEMERIS_NAME>almLe20231127_110107Au20231127_055058</EPHEMERIS_NAME><COVARIANCE_METHOD>CALCULATED</COVARIANCE_METHOD><MANEUVERABLE>NO</MANEUVERABLE><REF_FRAME>ITRF</REF_FRAME><GRAVITY_MODEL>EIGEN GL04S: 24D 24O</GRAVITY_MODEL><ATMOSPHERIC_MODEL>NONE</ATMOSPHERIC_MODEL><N_BODY_PERTURBATIONS>MOON,SUN</N_BODY_PERTURBATIONS><SOLAR_RAD_PRESSURE>YES</SOLAR_RAD_PRESSURE><EARTH_TIDES>NO</EARTH_TIDES></metadata><data><odParameters><TIME_LASTOB_START>2023-11-27T05:50:58.039</TIME_LASTOB_START><TIME_LASTOB_END>2023-11-27T05:50:58.039</TIME_LASTOB_END><RECOMMENDED_OD_SPAN units="d">14.0</RECOMMENDED_OD_SPAN><ACTUAL_OD_SPAN units="d">13.417713912037039</ACTUAL_OD_SPAN><OBS_AVAILABLE>899</OBS_AVAILABLE><OBS_USED>899</OBS_USED><TRACKS_AVAILABLE>31</TRACKS_AVAILABLE><TRACKS_USED>31</TRACKS_USED><RESIDUALS_ACCEPTED units="%">100.0</RESIDUALS_ACCEPTED><WEIGHTED_RMS>0.6670651063930926</WEIGHTED_RMS></odParameters><additionalParameters><COMMENT>JAC_LAST_ACC_OB = Greater Than (&gt;) 48 Hours</COMMENT><AREA_PC units="m**2">101.93376457451753</AREA_PC><CR_AREA_OVER_MASS units="m**2/kg">0.0024051136499158273</CR_AREA_OVER_MASS></additionalParameters><stateVector><X units="km">41842.440244929196</X><Y units="km">-5322.835606418861</Y><Z units="km">-17.925704994827313</Z><X_DOT units="km/s">-0.009463024050123977</X_DOT><Y_DOT units="km/s">-0.08844886352887352</Y_DOT><Z_DOT units="km/s">0.7240358268218589</Z_DOT></stateVector><covarianceMatrix><CR_R units="m**2">7995.228074244543</CR_R><CT_R units="m**2">6881.407908396347</CT_R><CT_T units="m**2">7269.709828064883</CT_T><CN_R units="m**2">-258.1242657293489</CN_R><CN_T units="m**2">-187.72833351932545</CN_T><CN_N units="m**2">91.83112540364922</CN_N><CRDOT_R units="m**2/s">-0.5880621411060271</CRDOT_R><CRDOT_T units="m**2/s">-0.6093329145156132</CRDOT_T><CRDOT_N units="m**2/s">0.01622210365329152</CRDOT_N><CRDOT_RDOT units="m**2/s**2">5.17542075021621E-5</CRDOT_RDOT><CTDOT_R units="m**2/s">-0.5868567226143271</CTDOT_R><CTDOT_T units="m**2/s">-0.5061033994361193</CTDOT_T><CTDOT_N units="m**2/s">0.0188935701183814</CTDOT_N><CTDOT_RDOT units="m**2/s**2">4.3241642270475494E-5</CTDOT_RDOT><CTDOT_TDOT units="m**2/s**2">4.3076662915205814E-5</CTDOT_TDOT><CNDOT_R units="m**2/s">0.004577428359044772</CNDOT_R><CNDOT_T units="m**2/s">0.00723499017578981</CNDOT_T><CNDOT_N units="m**2/s">-0.015142639158127922</CNDOT_N><CNDOT_RDOT units="m**2/s**2">-6.646397757672689E-7</CNDOT_RDOT><CNDOT_TDOT units="m**2/s**2">-3.3742988368476496E-7</CNDOT_TDOT><CNDOT_NDOT units="m**2/s**2">3.6367430633128595E-6</CNDOT_NDOT><CDRG_R units="m**3/kg">0.0</CDRG_R><CDRG_T units="m**3/kg">0.0</CDRG_T><CDRG_N units="m**3/kg">0.0</CDRG_N><CDRG_RDOT units="m**3/(kg*s)">0.0</CDRG_RDOT><CDRG_TDOT units="m**3/(kg*s)">0.0</CDRG_TDOT><CDRG_NDOT units="m**3/(kg*s)">0.0</CDRG_NDOT><CDRG_DRG units="m**4/kg**2">0.0</CDRG_DRG><CSRP_R units="m**3/kg">0.0</CSRP_R><CSRP_T units="m**3/kg">0.0</CSRP_T><CSRP_N units="m**3/kg">0.0</CSRP_N><CSRP_RDOT units="m**3/(kg*s)">0.0</CSRP_RDOT><CSRP_TDOT units="m**3/(kg*s)">0.0</CSRP_TDOT><CSRP_NDOT units="m**3/(kg*s)">0.0</CSRP_NDOT><CSRP_DRG units="m**4/kg**2">0.0</CSRP_DRG><CSRP_SRP units="m**4/kg**2">0.0</CSRP_SRP></covarianceMatrix></data></segment></body></cdm>